[
  {
    "OBJECT_NAME": "STARLINK-34175",
    "OBJECT_ID": "25112Z",
    "EPOCH": "2025-11-11T02:54:17.347104",
    "MEAN_MOTION": 15.05658169,
    "ECCENTRICITY": 7.26e-05,
    "INCLINATION": 97.6037,
    "RA_OF_ASC_NODE": 4.5916,
    "ARG_OF_PERICENTER": 95.7681,
    "MEAN_ANOMALY": 264.3629,
    "EPHEMERIS_TYPE": 0,
    "CLASSIFICATION_TYPE": "U",
    "NORAD_CAT_ID": 64169,
    "ELEMENT_SET_NO": 999,
    "REV_AT_EPOCH": 2546,
    "BSTAR": 0.00038577,
    "MEAN_MOTION_DOT": 5.511e-05,
    "MEAN_MOTION_DDOT": 0.0,
    "TLE_LINE1": "1 64169U 25112Z   25315.12103411  .00005511  00000+0  38577-3 0  9990",
    "TLE_LINE2": "2 64169  97.6037   4.5916 0000726  95.7681 264.3629 15.05658169 25461",
    "COMMENT": "Grouped by shell and plane from TLE"
  },
  {
    "OBJECT_NAME": "STARLINK-34922",
    "OBJECT_ID": "25184A",
    "EPOCH": "2025-11-11T03:12:12.070656",
    "MEAN_MOTION": 15.05659165,
    "ECCENTRICITY": 0.0001226,
    "INCLINATION": 97.6038,
    "RA_OF_ASC_NODE": 5.8245,
    "ARG_OF_PERICENTER": 98.5128,
    "MEAN_ANOMALY": 261.6238,
    "EPHEMERIS_TYPE": 0,
    "CLASSIFICATION_TYPE": "U",
    "NORAD_CAT_ID": 65273,
    "ELEMENT_SET_NO": 999,
    "REV_AT_EPOCH": 1346,
    "BSTAR": 0.00040812,
    "MEAN_MOTION_DOT": 5.834e-05,
    "MEAN_MOTION_DDOT": 0.0,
    "TLE_LINE1": "1 65273U 25184A   25315.13347304  .00005834  00000+0  40812-3 0  9991",
    "TLE_LINE2": "2 65273  97.6038   5.8245 0001226  98.5128 261.6238 15.05659165 13461",
    "COMMENT": "Grouped by shell and plane from TLE"
  },
  {
    "OBJECT_NAME": "STARLINK-34904",
    "OBJECT_ID": "25184B",
    "EPOCH": "2025-11-11T02:16:21.765504",
    "MEAN_MOTION": 15.05666247,
    "ECCENTRICITY": 4.26e-05,
    "INCLINATION": 97.6067,
    "RA_OF_ASC_NODE": 5.723,
    "ARG_OF_PERICENTER": 256.6215,
    "MEAN_ANOMALY": 103.4964,
    "EPHEMERIS_TYPE": 0,
    "CLASSIFICATION_TYPE": "U",
    "NORAD_CAT_ID": 65274,
    "ELEMENT_SET_NO": 999,
    "REV_AT_EPOCH": 1345,
    "BSTAR": 0.00052574,
    "MEAN_MOTION_DOT": 7.536e-05,
    "MEAN_MOTION_DDOT": 0.0,
    "TLE_LINE1": "1 65274U 25184B   25315.09469636  .00007536  00000+0  52574-3 0  9999",
    "TLE_LINE2": "2 65274  97.6067   5.7230 0000426 256.6215 103.4964 15.05666247 13459",
    "COMMENT": "Grouped by shell and plane from TLE"
  },
  {
    "OBJECT_NAME": "STARLINK-34954",
    "OBJECT_ID": "25184C",
    "EPOCH": "2025-11-11T02:44:16.562112",
    "MEAN_MOTION": 15.0566097,
    "ECCENTRICITY": 9.52e-05,
    "INCLINATION": 97.6033,
    "RA_OF_ASC_NODE": 5.6959,
    "ARG_OF_PERICENTER": 98.9034,
    "MEAN_ANOMALY": 261.2301,
    "EPHEMERIS_TYPE": 0,
    "CLASSIFICATION_TYPE": "U",
    "NORAD_CAT_ID": 65275,
    "ELEMENT_SET_NO": 999,
    "REV_AT_EPOCH": 1345,
    "BSTAR": 0.00057805,
    "MEAN_MOTION_DOT": 8.292e-05,
    "MEAN_MOTION_DDOT": 0.0,
    "TLE_LINE1": "1 65275U 25184C   25315.11408058  .00008292  00000+0  57805-3 0  9996",
    "TLE_LINE2": "2 65275  97.6033   5.6959 0000952  98.9034 261.2301 15.05660970 13455",
    "COMMENT": "Grouped by shell and plane from TLE"
  },
  {
    "OBJECT_NAME": "STARLINK-34968",
    "OBJECT_ID": "25184D",
    "EPOCH": "2025-11-11T03:32:07.942560",
    "MEAN_MOTION": 15.05669287,
    "ECCENTRICITY": 0.0001808,
    "INCLINATION": 97.6046,
    "RA_OF_ASC_NODE": 5.8075,
    "ARG_OF_PERICENTER": 109.7983,
    "MEAN_ANOMALY": 250.3439,
    "EPHEMERIS_TYPE": 0,
    "CLASSIFICATION_TYPE": "U",
    "NORAD_CAT_ID": 65276,
    "ELEMENT_SET_NO": 999,
    "REV_AT_EPOCH": 1346,
    "BSTAR": 0.00044259,
    "MEAN_MOTION_DOT": 6.334e-05,
    "MEAN_MOTION_DDOT": 0.0,
    "TLE_LINE1": "1 65276U 25184D   25315.14731415  .00006334  00000+0  44259-3 0  9990",
    "TLE_LINE2": "2 65276  97.6046   5.8075 0001808 109.7983 250.3439 15.05669287 13468",
    "COMMENT": "Grouped by shell and plane from TLE"
  },
  {
    "OBJECT_NAME": "STARLINK-34935",
    "OBJECT_ID": "25184E",
    "EPOCH": "2025-11-11T03:00:14.448672",
    "MEAN_MOTION": 15.05658212,
    "ECCENTRICITY": 7.97e-05,
    "INCLINATION": 97.6042,
    "RA_OF_ASC_NODE": 5.8372,
    "ARG_OF_PERICENTER": 95.5154,
    "MEAN_ANOMALY": 264.6164,
    "EPHEMERIS_TYPE": 0,
    "CLASSIFICATION_TYPE": "U",
    "NORAD_CAT_ID": 65277,
    "ELEMENT_SET_NO": 999,
    "REV_AT_EPOCH": 1346,
    "BSTAR": 0.00037199,
    "MEAN_MOTION_DOT": 5.312e-05,
    "MEAN_MOTION_DDOT": 0.0,
    "TLE_LINE1": "1 65277U 25184E   25315.12516723  .00005312  00000+0  37199-3 0  9992",
    "TLE_LINE2": "2 65277  97.6042   5.8372 0000797  95.5154 264.6164 15.05658212 13462",
    "COMMENT": "Grouped by shell and plane from TLE"
  },
  {
    "OBJECT_NAME": "STARLINK-35000",
    "OBJECT_ID": "25184F",
    "EPOCH": "2025-11-11T02:28:19.626816",
    "MEAN_MOTION": 15.05664047,
    "ECCENTRICITY": 0.000135,
    "INCLINATION": 97.6045,
    "RA_OF_ASC_NODE": 5.7097,
    "ARG_OF_PERICENTER": 96.668,
    "MEAN_ANOMALY": 263.47,
    "EPHEMERIS_TYPE": 0,
    "CLASSIFICATION_TYPE": "U",
    "NORAD_CAT_ID": 65278,
    "ELEMENT_SET_NO": 999,
    "REV_AT_EPOCH": 1345,
    "BSTAR": 0.0007268400000000001,
    "MEAN_MOTION_DOT": 0.00010446,
    "MEAN_MOTION_DDOT": 0.0,
    "TLE_LINE1": "1 65278U 25184F   25315.10300494  .00010446  00000+0  72684-3 0  9999",
    "TLE_LINE2": "2 65278  97.6045   5.7097 0001350  96.6680 263.4700 15.05664047 13456",
    "COMMENT": "Grouped by shell and plane from TLE"
  },
  {
    "OBJECT_NAME": "STARLINK-35023",
    "OBJECT_ID": "25184G",
    "EPOCH": "2025-11-11T03:44:07.188000",
    "MEAN_MOTION": 15.05669633,
    "ECCENTRICITY": 9.55e-05,
    "INCLINATION": 97.607,
    "RA_OF_ASC_NODE": 5.7987,
    "ARG_OF_PERICENTER": 95.1818,
    "MEAN_ANOMALY": 264.9518,
    "EPHEMERIS_TYPE": 0,
    "CLASSIFICATION_TYPE": "U",
    "NORAD_CAT_ID": 65279,
    "ELEMENT_SET_NO": 999,
    "REV_AT_EPOCH": 1346,
    "BSTAR": 0.0007915600000000001,
    "MEAN_MOTION_DOT": 0.00011385,
    "MEAN_MOTION_DDOT": 0.0,
    "TLE_LINE1": "1 65279U 25184G   25315.15563875  .00011385  00000+0  79156-3 0  9993",
    "TLE_LINE2": "2 65279  97.6070   5.7987 0000955  95.1818 264.9518 15.05669633 13460",
    "COMMENT": "Grouped by shell and plane from TLE"
  },
  {
    "OBJECT_NAME": "STARLINK-35001",
    "OBJECT_ID": "25184H",
    "EPOCH": "2025-11-11T03:20:10.584096",
    "MEAN_MOTION": 15.0566185,
    "ECCENTRICITY": 0.0001444,
    "INCLINATION": 97.6045,
    "RA_OF_ASC_NODE": 5.8222,
    "ARG_OF_PERICENTER": 83.0272,
    "MEAN_ANOMALY": 277.1119,
    "EPHEMERIS_TYPE": 0,
    "CLASSIFICATION_TYPE": "U",
    "NORAD_CAT_ID": 65280,
    "ELEMENT_SET_NO": 999,
    "REV_AT_EPOCH": 1346,
    "BSTAR": 0.00054659,
    "MEAN_MOTION_DOT": 7.837e-05,
    "MEAN_MOTION_DDOT": 0.0,
    "TLE_LINE1": "1 65280U 25184H   25315.13901139  .00007837  00000+0  54659-3 0  9990",
    "TLE_LINE2": "2 65280  97.6045   5.8222 0001444  83.0272 277.1119 15.05661850 13467",
    "COMMENT": "Grouped by shell and plane from TLE"
  },
  {
    "OBJECT_NAME": "STARLINK-35010",
    "OBJECT_ID": "25184J",
    "EPOCH": "2025-11-11T03:08:12.817824",
    "MEAN_MOTION": 15.05662705,
    "ECCENTRICITY": 0.0001237,
    "INCLINATION": 97.6041,
    "RA_OF_ASC_NODE": 5.8296,
    "ARG_OF_PERICENTER": 66.47,
    "MEAN_ANOMALY": 293.6657,
    "EPHEMERIS_TYPE": 0,
    "CLASSIFICATION_TYPE": "U",
    "NORAD_CAT_ID": 65281,
    "ELEMENT_SET_NO": 999,
    "REV_AT_EPOCH": 1346,
    "BSTAR": 0.00065183,
    "MEAN_MOTION_DOT": 9.36e-05,
    "MEAN_MOTION_DDOT": 0.0,
    "TLE_LINE1": "1 65281U 25184J   25315.13070391  .00009360  00000+0  65183-3 0  9995",
    "TLE_LINE2": "2 65281  97.6041   5.8296 0001237  66.4700 293.6657 15.05662705 13466",
    "COMMENT": "Grouped by shell and plane from TLE"
  },
  {
    "OBJECT_NAME": "STARLINK-35021",
    "OBJECT_ID": "25184K",
    "EPOCH": "2025-11-11T02:52:15.632832",
    "MEAN_MOTION": 15.05665099,
    "ECCENTRICITY": 8.26e-05,
    "INCLINATION": 97.6038,
    "RA_OF_ASC_NODE": 5.8451,
    "ARG_OF_PERICENTER": 93.11,
    "MEAN_ANOMALY": 267.0222,
    "EPHEMERIS_TYPE": 0,
    "CLASSIFICATION_TYPE": "U",
    "NORAD_CAT_ID": 65282,
    "ELEMENT_SET_NO": 999,
    "REV_AT_EPOCH": 1341,
    "BSTAR": 0.00050148,
    "MEAN_MOTION_DOT": 7.185e-05,
    "MEAN_MOTION_DDOT": 0.0,
    "TLE_LINE1": "1 65282U 25184K   25315.11962538  .00007185  00000+0  50148-3 0  9995",
    "TLE_LINE2": "2 65282  97.6038   5.8451 0000826  93.1100 267.0222 15.05665099 13417",
    "COMMENT": "Grouped by shell and plane from TLE"
  },
  {
    "OBJECT_NAME": "STARLINK-35015",
    "OBJECT_ID": "25184L",
    "EPOCH": "2025-11-11T02:36:18.002016",
    "MEAN_MOTION": 15.05662481,
    "ECCENTRICITY": 9.12e-05,
    "INCLINATION": 97.6044,
    "RA_OF_ASC_NODE": 5.7036,
    "ARG_OF_PERICENTER": 93.1228,
    "MEAN_ANOMALY": 267.0103,
    "EPHEMERIS_TYPE": 0,
    "CLASSIFICATION_TYPE": "U",
    "NORAD_CAT_ID": 65283,
    "ELEMENT_SET_NO": 999,
    "REV_AT_EPOCH": 1345,
    "BSTAR": 0.00057136,
    "MEAN_MOTION_DOT": 8.196e-05,
    "MEAN_MOTION_DDOT": 0.0,
    "TLE_LINE1": "1 65283U 25184L   25315.10854169  .00008196  00000+0  57136-3 0  9992",
    "TLE_LINE2": "2 65283  97.6044   5.7036 0000912  93.1228 267.0103 15.05662481 13454",
    "COMMENT": "Grouped by shell and plane from TLE"
  },
  {
    "OBJECT_NAME": "STARLINK-35006",
    "OBJECT_ID": "25184M",
    "EPOCH": "2025-11-11T03:28:09.399936",
    "MEAN_MOTION": 15.05651129,
    "ECCENTRICITY": 0.000115,
    "INCLINATION": 97.6043,
    "RA_OF_ASC_NODE": 5.8125,
    "ARG_OF_PERICENTER": 88.1335,
    "MEAN_ANOMALY": 272.0024,
    "EPHEMERIS_TYPE": 0,
    "CLASSIFICATION_TYPE": "U",
    "NORAD_CAT_ID": 65284,
    "ELEMENT_SET_NO": 999,
    "REV_AT_EPOCH": 1346,
    "BSTAR": 0.00068731,
    "MEAN_MOTION_DOT": 9.87e-05,
    "MEAN_MOTION_DDOT": 0.0,
    "TLE_LINE1": "1 65284U 25184M   25315.14455324  .00009870  00000+0  68731-3 0  9990",
    "TLE_LINE2": "2 65284  97.6043   5.8125 0001150  88.1335 272.0024 15.05651129 13468",
    "COMMENT": "Grouped by shell and plane from TLE"
  }
]